[{"OBJECT_NAME":"STARLINK-4321","OBJECT_ID":"2022-077AR","EPOCH":"2026-03-09T10:53:42.751392","MEAN_MOTION":15.01260631,"ECCENTRICITY":0.00011762,"INCLINATION":97.6032,"RA_OF_ASC_NODE":249.989,"ARG_OF_PERICENTER":87.6483,"MEAN_ANOMALY":272.4876,"EPHEMERIS_TYPE":0,"CLASSIFICATION_TYPE":"U","NORAD_CAT_ID":53082,"ELEMENT_SET_NO":999,"REV_AT_EPOCH":20088,"BSTAR":5.0339452e-5,"MEAN_MOTION_DOT":5.88e-6,"MEAN_MOTION_DDOT":0},{"OBJECT_NAME":"CZ-4C R\/B","OBJECT_ID":"2024-186B","EPOCH":"2026-03-09T22:51:12.491424","MEAN_MOTION":15.07425891,"ECCENTRICITY":0.00475116,"INCLINATION":97.8722,"RA_OF_ASC_NODE":96.5934,"ARG_OF_PERICENTER":122.4234,"MEAN_ANOMALY":238.1602,"EPHEMERIS_TYPE":0,"CLASSIFICATION_TYPE":"U","NORAD_CAT_ID":61572,"ELEMENT_SET_NO":999,"REV_AT_EPOCH":7672,"BSTAR":0.00027865777,"MEAN_MOTION_DOT":4.262e-5,"MEAN_MOTION_DDOT":0}]
